ONEWEB-0228             
1 48780U 21045P   23257.83518875 -.00000016  00000+0 -75654-4 0  9992
2 48780  87.8938  99.5696 0001852  87.3649 272.7693 13.15551117113145
